{
    "links": {
        "self": "http://www.neowsapp.com/rest/v1/neo/54073358?api_key=iIulBulltgU6a56xZRHN4H3l9WmuAYTsLGpBGhQ2"
    },
    "id": "54073358",
    "neo_reference_id": "54073358",
    "name": "(2020 TT7)",
    "designation": "2020 TT7",
    "nasa_jpl_url": "http://ssd.jpl.nasa.gov/sbdb.cgi?sstr=54073358",
    "absolute_magnitude_h": 22.351,
    "estimated_diameter": {
        "kilometers": {
            "estimated_diameter_min": 0.0900233099,
            "estimated_diameter_max": 0.2012982405
        },
        "meters": {
            "estimated_diameter_min": 90.0233098882,
            "estimated_diameter_max": 201.2982404695
        },
        "miles": {
            "estimated_diameter_min": 0.0559378741,
            "estimated_diameter_max": 0.125080889
        },
        "feet": {
            "estimated_diameter_min": 295.3520760135,
            "estimated_diameter_max": 660.4273192619
        }
    },
    "is_potentially_hazardous_asteroid": false,
    "close_approach_data": [
        {
            "close_approach_date": "2000-12-30",
            "close_approach_date_full": "2000-Dec-30 07:54",
            "epoch_date_close_approach": 978162840000,
            "relative_velocity": {
                "kilometers_per_second": "3.7029437796",
                "kilometers_per_hour": "13330.5976064475",
                "miles_per_hour": "8283.1149405173"
            },
            "miss_distance": {
                "astronomical": "0.1940452485",
                "lunar": "75.4836016665",
                "kilometers": "29028755.859220695",
                "miles": "18037632.474787791"
            },
            "orbiting_body": "Earth"
        },
        {
            "close_approach_date": "2021-01-02",
            "close_approach_date_full": "2021-Jan-02 03:53",
            "epoch_date_close_approach": 1609559580000,
            "relative_velocity": {
                "kilometers_per_second": "3.5910668911",
                "kilometers_per_hour": "12927.8408078679",
                "miles_per_hour": "8032.8575286444"
            },
            "miss_distance": {
                "astronomical": "0.1862676888",
                "lunar": "72.4581309432",
                "kilometers": "27865249.494302856",
                "miles": "17314663.1441611728"
            },
            "orbiting_body": "Earth"
        },
        {
            "close_approach_date": "2041-01-05",
            "close_approach_date_full": "2041-Jan-05 01:02",
            "epoch_date_close_approach": 2240960520000,
            "relative_velocity": {
                "kilometers_per_second": "3.4512305713",
                "kilometers_per_hour": "12424.4300567033",
                "miles_per_hour": "7720.0576649554"
            },
            "miss_distance": {
                "astronomical": "0.1863214413",
                "lunar": "72.4790406657",
                "kilometers": "27873290.753810031",
                "miles": "17319659.7511231878"
            },
            "orbiting_body": "Earth"
        }
    ],
    "orbital_data": {
        "orbit_id": "15",
        "orbit_determination_date": "2020-12-07 05:26:47",
        "first_observation_date": "2020-10-14",
        "last_observation_date": "2020-12-07",
        "data_arc_in_days": 54,
        "observations_used": 70,
        "orbit_uncertainty": "6",
        "minimum_orbit_intersection": ".185221",
        "jupiter_tisserand_invariant": "4.129",
        "epoch_osculation": "2459000.5",
        "eccentricity": ".328352294892554",
        "semi_major_axis": "1.702504326432883",
        "inclination": "6.852623619917951",
        "ascending_node_longitude": "145.188489544246",
        "orbital_period": "811.3920780653029",
        "perihelion_distance": "1.143483123784144",
        "perihelion_argument": "308.0215030727555",
        "aphelion_distance": "2.261525529081621",
        "perihelion_time": "2459208.954024471261",
        "mean_anomaly": "267.5127169239946",
        "mean_motion": ".4436819260774521",
        "equinox": "J2000",
        "orbit_class": {
            "orbit_class_type": "AMO",
            "orbit_class_description": "Near-Earth asteroid orbits similar to that of 1221 Amor",
            "orbit_class_range": "1.017 AU < q (perihelion) < 1.3 AU"
        }
    },
    "is_sentry_object": false
}